CCSDS_OMM_VERS = 2.0
CREATION_DATE  = 
ORIGINATOR     = 

OBJECT_NAME    = ALOS (DAICHI)
OBJECT_ID      = 2006-002A
CENTER_NAME    = EARTH
REF_FRAME      = TEME
TIME_SYSTEM    = UTC
MEAN_ELEMENT_THEORY = SGP/SGP4

EPOCH          = 2025-12-17T17:37:14.152512
MEAN_MOTION    = 14.69501788
ECCENTRICITY   = .00013612
INCLINATION    = 98.1098
RA_OF_ASC_NODE = 303.1864
ARG_OF_PERICENTER = 113.5739
MEAN_ANOMALY   = 246.5610

EPHEMERIS_TYPE = 0
CLASSIFICATION_TYPE = U
NORAD_CAT_ID   = 28931
ELEMENT_SET_NO = 999
REV_AT_EPOCH   = 6144
BSTAR          = .19545051E-3
MEAN_MOTION_DOT = .111E-4
MEAN_MOTION_DDOT = 0

CCSDS_OMM_VERS = 2.0
CREATION_DATE  = 
ORIGINATOR     = 

OBJECT_NAME    = H-2A R/B
OBJECT_ID      = 2006-002B
CENTER_NAME    = EARTH
REF_FRAME      = TEME
TIME_SYSTEM    = UTC
MEAN_ELEMENT_THEORY = SGP/SGP4

EPOCH          = 2025-12-30T08:34:12.493056
MEAN_MOTION    = 15.14952352
ECCENTRICITY   = .00547475
INCLINATION    = 98.2315
RA_OF_ASC_NODE = 140.5496
ARG_OF_PERICENTER = 116.9401
MEAN_ANOMALY   = 243.7437

EPHEMERIS_TYPE = 0
CLASSIFICATION_TYPE = U
NORAD_CAT_ID   = 28932
ELEMENT_SET_NO = 999
REV_AT_EPOCH   = 8393
BSTAR          = .73929363E-3
MEAN_MOTION_DOT = .14252E-3
MEAN_MOTION_DDOT = 0

CCSDS_OMM_VERS = 2.0
CREATION_DATE  = 
ORIGINATOR     = 

OBJECT_NAME    = RESURS-DK 1
OBJECT_ID      = 2006-021A
CENTER_NAME    = EARTH
REF_FRAME      = TEME
TIME_SYSTEM    = UTC
MEAN_ELEMENT_THEORY = SGP/SGP4

EPOCH          = 2025-12-30T13:23:16.381536
MEAN_MOTION    = 15.12273228
ECCENTRICITY   = .00070298
INCLINATION    = 69.9346
RA_OF_ASC_NODE = 55.7863
ARG_OF_PERICENTER = 243.6938
MEAN_ANOMALY   = 116.3507

EPHEMERIS_TYPE = 0
CLASSIFICATION_TYPE = U
NORAD_CAT_ID   = 29228
ELEMENT_SET_NO = 999
REV_AT_EPOCH   = 7707
BSTAR          = .26689767E-3
MEAN_MOTION_DOT = .4525E-4
MEAN_MOTION_DDOT = 0

CCSDS_OMM_VERS = 2.0
CREATION_DATE  = 
ORIGINATOR     = 

OBJECT_NAME    = CZ-4B R/B
OBJECT_ID      = 2006-046C
CENTER_NAME    = EARTH
REF_FRAME      = TEME
TIME_SYSTEM    = UTC
MEAN_ELEMENT_THEORY = SGP/SGP4

EPOCH          = 2025-12-30T14:10:59.884896
MEAN_MOTION    = 15.16069066
ECCENTRICITY   = .00346798
INCLINATION    = 97.5719
RA_OF_ASC_NODE = 44.6811
ARG_OF_PERICENTER = 144.9002
MEAN_ANOMALY   = 215.4525

EPHEMERIS_TYPE = 0
CLASSIFICATION_TYPE = U
NORAD_CAT_ID   = 29507
ELEMENT_SET_NO = 999
REV_AT_EPOCH   = 4957
BSTAR          = .42622404E-3
MEAN_MOTION_DOT = .8262E-4
MEAN_MOTION_DDOT = 0

CCSDS_OMM_VERS = 2.0
CREATION_DATE  = 
ORIGINATOR     = 

OBJECT_NAME    = CZ-2C R/B
OBJECT_ID      = 2007-010B
CENTER_NAME    = EARTH
REF_FRAME      = TEME
TIME_SYSTEM    = UTC
MEAN_ELEMENT_THEORY = SGP/SGP4

EPOCH          = 2025-12-30T07:57:49.209984
MEAN_MOTION    = 14.20217803
ECCENTRICITY   = .00598211
INCLINATION    = 98.3975
RA_OF_ASC_NODE = 116.0975
ARG_OF_PERICENTER = 135.2164
MEAN_ANOMALY   = 225.3865

EPHEMERIS_TYPE = 0
CLASSIFICATION_TYPE = U
NORAD_CAT_ID   = 31114
ELEMENT_SET_NO = 999
REV_AT_EPOCH   = 96987
BSTAR          = .13844635E-3
MEAN_MOTION_DOT = .261E-5
MEAN_MOTION_DDOT = 0

CCSDS_OMM_VERS = 2.0
CREATION_DATE  = 
ORIGINATOR     = 

OBJECT_NAME    = COSMO-SKYMED 1
OBJECT_ID      = 2007-023A
CENTER_NAME    = EARTH
REF_FRAME      = TEME
TIME_SYSTEM    = UTC
MEAN_ELEMENT_THEORY = SGP/SGP4

EPOCH          = 2025-12-30T15:34:16.401216
MEAN_MOTION    = 14.95911356
ECCENTRICITY   = .00010462
INCLINATION    = 97.8831
RA_OF_ASC_NODE = 190.1666
ARG_OF_PERICENTER = 83.5672
MEAN_ANOMALY   = 276.5667

EPHEMERIS_TYPE = 0
CLASSIFICATION_TYPE = U
NORAD_CAT_ID   = 31598
ELEMENT_SET_NO = 999
REV_AT_EPOCH   = 458
BSTAR          = .55994922E-3
MEAN_MOTION_DOT = .621E-4
MEAN_MOTION_DDOT = 0

CCSDS_OMM_VERS = 2.0
CREATION_DATE  = 
ORIGINATOR     = 

OBJECT_NAME    = COSMOS 2428
OBJECT_ID      = 2007-029A
CENTER_NAME    = EARTH
REF_FRAME      = TEME
TIME_SYSTEM    = UTC
MEAN_ELEMENT_THEORY = SGP/SGP4

EPOCH          = 2025-12-30T08:48:27.753696
MEAN_MOTION    = 14.12898462
ECCENTRICITY   = .00046879
INCLINATION    = 70.9374
RA_OF_ASC_NODE = 348.8688
ARG_OF_PERICENTER = 359.1578
MEAN_ANOMALY   = 0.9534

EPHEMERIS_TYPE = 0
CLASSIFICATION_TYPE = U
NORAD_CAT_ID   = 31792
ELEMENT_SET_NO = 999
REV_AT_EPOCH   = 95430
BSTAR          = .20694594E-3
MEAN_MOTION_DOT = .337E-5
MEAN_MOTION_DDOT = 0

CCSDS_OMM_VERS = 2.0
CREATION_DATE  = 
ORIGINATOR     = 

OBJECT_NAME    = SL-16 R/B
OBJECT_ID      = 2007-029B
CENTER_NAME    = EARTH
REF_FRAME      = TEME
TIME_SYSTEM    = UTC
MEAN_ELEMENT_THEORY = SGP/SGP4

EPOCH          = 2025-12-30T08:35:11.004000
MEAN_MOTION    = 14.14822726
ECCENTRICITY   = .00019658
INCLINATION    = 70.9771
RA_OF_ASC_NODE = 318.1226
ARG_OF_PERICENTER = 269.1385
MEAN_ANOMALY   = 204.5050

EPHEMERIS_TYPE = 0
CLASSIFICATION_TYPE = U
NORAD_CAT_ID   = 31793
ELEMENT_SET_NO = 999
REV_AT_EPOCH   = 95556
BSTAR          = .16992757E-3
MEAN_MOTION_DOT = .28E-5
MEAN_MOTION_DDOT = 0

CCSDS_OMM_VERS = 2.0
CREATION_DATE  = 
ORIGINATOR     = 

OBJECT_NAME    = KORONAS-FOTON
OBJECT_ID      = 2009-003A
CENTER_NAME    = EARTH
REF_FRAME      = TEME
TIME_SYSTEM    = UTC
MEAN_ELEMENT_THEORY = SGP/SGP4

EPOCH          = 2025-12-30T09:54:03.873312
MEAN_MOTION    = 15.41548380
ECCENTRICITY   = .00130135
INCLINATION    = 82.4309
RA_OF_ASC_NODE = 347.7880
ARG_OF_PERICENTER = 53.8019
MEAN_ANOMALY   = 306.4429

EPHEMERIS_TYPE = 0
CLASSIFICATION_TYPE = U
NORAD_CAT_ID   = 33504
ELEMENT_SET_NO = 999
REV_AT_EPOCH   = 93506
BSTAR          = .31189278E-3
MEAN_MOTION_DOT = .13173E-3
MEAN_MOTION_DDOT = 0

CCSDS_OMM_VERS = 2.0
CREATION_DATE  = 
ORIGINATOR     = 

OBJECT_NAME    = CZ-2C R/B
OBJECT_ID      = 2011-030B
CENTER_NAME    = EARTH
REF_FRAME      = TEME
TIME_SYSTEM    = UTC
MEAN_ELEMENT_THEORY = SGP/SGP4

EPOCH          = 2025-12-30T12:14:01.542912
MEAN_MOTION    = 14.80961536
ECCENTRICITY   = .00518251
INCLINATION    = 97.8435
RA_OF_ASC_NODE = 318.2258
ARG_OF_PERICENTER = 214.2762
MEAN_ANOMALY   = 264.9799

EPHEMERIS_TYPE = 0
CLASSIFICATION_TYPE = U
NORAD_CAT_ID   = 37731
ELEMENT_SET_NO = 999
REV_AT_EPOCH   = 77985
BSTAR          = .27995603E-3
MEAN_MOTION_DOT = .2162E-4
MEAN_MOTION_DDOT = 0

CCSDS_OMM_VERS = 2.0
CREATION_DATE  = 
ORIGINATOR     = 

OBJECT_NAME    = H-2A R/B
OBJECT_ID      = 2012-025E
CENTER_NAME    = EARTH
REF_FRAME      = TEME
TIME_SYSTEM    = UTC
MEAN_ELEMENT_THEORY = SGP/SGP4

EPOCH          = 2025-12-30T10:46:48.408960
MEAN_MOTION    = 14.94572051
ECCENTRICITY   = .00449113
INCLINATION    = 98.4622
RA_OF_ASC_NODE = 321.0486
ARG_OF_PERICENTER = 177.1542
MEAN_ANOMALY   = 182.9941

EPHEMERIS_TYPE = 0
CLASSIFICATION_TYPE = U
NORAD_CAT_ID   = 38341
ELEMENT_SET_NO = 999
REV_AT_EPOCH   = 73787
BSTAR          = .46347451E-3
MEAN_MOTION_DOT = .5046E-4
MEAN_MOTION_DDOT = 0

CCSDS_OMM_VERS = 2.0
CREATION_DATE  = 
ORIGINATOR     = 

OBJECT_NAME    = SHIJIAN-16 (SJ-16)
OBJECT_ID      = 2013-057A
CENTER_NAME    = EARTH
REF_FRAME      = TEME
TIME_SYSTEM    = UTC
MEAN_ELEMENT_THEORY = SGP/SGP4

EPOCH          = 2025-12-30T15:21:17.481024
MEAN_MOTION    = 14.92059729
ECCENTRICITY   = .00180492
INCLINATION    = 74.9739
RA_OF_ASC_NODE = 315.7827
ARG_OF_PERICENTER = 278.5442
MEAN_ANOMALY   = 81.3700

EPHEMERIS_TYPE = 0
CLASSIFICATION_TYPE = U
NORAD_CAT_ID   = 39358
ELEMENT_SET_NO = 999
REV_AT_EPOCH   = 66120
BSTAR          = .50059948E-3
MEAN_MOTION_DOT = .5072E-4
MEAN_MOTION_DDOT = 0

