ALOS (DAICHI)           
1 28931U 06002A   25351.73419158  .00001110  00000+0  19545-3 0  9994
2 28931  98.1098 303.1864 0001361 113.5739 246.5610 14.69501788 61443
H-2A R/B                
1 28932U 06002B   25364.35708904  .00014252  00000+0  73929-3 0  9994
2 28932  98.2315 140.5496 0054747 116.9401 243.7437 15.14952352 83932
RESURS-DK 1             
1 29228U 06021A   25364.55782849  .00004525  00000+0  26690-3 0  9991
2 29228  69.9346  55.7863 0007029 243.6938 116.3507 15.12273228 77076
CZ-4B R/B               
1 29507U 06046C   25364.59097089  .00008262  00000+0  42622-3 0  9992
2 29507  97.5719  44.6811 0034679 144.9002 215.4525 15.16069066 49575
CZ-2C R/B               
1 31114U 07010B   25364.33181956  .00000261  00000+0  13845-3 0  9996
2 31114  98.3975 116.0975 0059821 135.2164 225.3865 14.20217803969877
COSMO-SKYMED 1          
1 31598U 07023A   25364.64880094  .00006210  00000+0  55995-3 0  9991
2 31598  97.8831 190.1666 0001046  83.5672 276.5667 14.95911356  4585
COSMOS 2428             
1 31792U 07029A   25364.36698789  .00000337  00000+0  20695-3 0  9993
2 31792  70.9374 348.8688 0004687 359.1578   0.9534 14.12898462954309
SL-16 R/B               
1 31793U 07029B   25364.35776625  .00000280  00000+0  16993-3 0  9992
2 31793  70.9771 318.1226 0001965 269.1385 204.5050 14.14822726955567
KORONAS-FOTON           
1 33504U 09003A   25364.41254483  .00013173  00000+0  31189-3 0  9997
2 33504  82.4309 347.7880 0013013  53.8019 306.4429 15.41548380935064
CZ-2C R/B               
1 37731U 11030B   25364.50974008  .00002162  00000+0  27996-3 0  9995
2 37731  97.8435 318.2258 0051825 214.2762 264.9799 14.80961536779858
H-2A R/B                
1 38341U 12025E   25364.44917140  .00005046  00000+0  46347-3 0  9990
2 38341  98.4622 321.0486 0044911 177.1542 182.9941 14.94572051737876
SHIJIAN-16 (SJ-16)      
1 39358U 13057A   25364.63978566  .00005072  00000+0  50060-3 0  9991
2 39358  74.9739 315.7827 0018049 278.5442  81.3700 14.92059729661208
